#aV2020  3  1  0  0  0.00000000     288 DD+AD WGS84 FIT  NGA
## 2095      0.00000000   300.00000000 58909 0.0000000000000
+   32     1  2  3  4  5  6  7  8  9 10 11 12 13 14 15 16 17
+         18 19 20 21 22 23 24 25 26 27 28 29 30 31 32  0  0
+          0  0  0  0  0  0  0  0  0  0  0  0  0  0  0  0  0
+          0  0  0  0  0  0  0  0  0  0  0  0  0  0  0  0  0
+          0  0  0  0  0  0  0  0  0  0  0  0  0  0  0  0  0
++         2  2  2  2  2  2  2  2  2  2  2  2  2  2  2  2  2
++         2  2  2  2  2  2  2  2  2  2  2  2  2  2  2  0  0
++         0  0  0  0  0  0  0  0  0  0  0  0  0  0  0  0  0
++         0  0  0  0  0  0  0  0  0  0  0  0  0  0  0  0  0
++         0  0  0  0  0  0  0  0  0  0  0  0  0  0  0  0  0
%c cc cc ccc ccc cccc cccc cccc cccc ccccc ccccc ccccc ccccc
%c cc cc ccc ccc cccc cccc cccc cccc ccccc ccccc ccccc ccccc
%f  0.0000000  0.000000000  0.00000000000  0.000000000000000
%f  0.0000000  0.000000000  0.00000000000  0.000000000000000
%i    0    0    0    0      0      0      0      0         0
%i    0    0    0    0      0      0      0      0         0
/*      NGA, ST. LOUIS,MO.                                  
/*   EPHEMERIS COMPUTED FROM 2 DAYS OF DATA                 
/*   EPOCHA v5 SMOOTHER                                     
/*   G1762 IERS2010 SATAF SATAPC                            
*  2020  3  1  2 25  0.00000000
P  1  21263.271446  13345.300843   8961.096430   -311.179830                    
V  1   6698.446712   9590.828105 -29172.269312     -0.123113                    
P  2 -10837.476120 -21288.419374  12331.540860   -413.855748                    
V  2  12381.571630   8113.688347  26190.463142     -0.068061                    
P  3  14566.654405   3959.980782  21796.024781   -106.571855                    
V  3  -7453.796293  26780.724594    209.554299     -0.093439                    
P  4  24571.938655   1683.996910   9984.036904    -55.925227                    
V  4 -11812.684115   5193.417846  28192.540188     -0.053460                    
P  5  -3968.357628 -22743.885652 -13087.541869     -8.385828                    
V  5   6464.906019 -15396.778787  25244.691073     -0.006066                    
P  6     -2.736222 -18422.911758  19173.071553   -220.539660                    
V  6  17752.053188  16476.599403  15919.335570     -0.089436                    
P  7  17216.332091  -2449.849264 -19916.290098   -225.672671                    
V  7  17129.643656  19349.552967  11776.551501     -0.084950                    
P  8  17503.126028   8216.603933 -18291.647199    -25.522358                    
V  8 -22019.092455   7307.680521 -17517.172847     -0.013006                    
P  9  25630.178693  -7009.664270    -22.771817   -166.715893                    
V  9    769.145224   2955.283674  31568.206963     -0.083303                    
P 10 -11529.270689  22613.447407  -7319.944263   -262.226044                    
V 10   -109.308371  -9846.101276 -30138.607355     -0.128011                    
P 11  21996.647110  13185.524028  -6779.944954   -346.877451                    
V 11  -9082.615505   1382.962200 -29179.720262      0.108594                    
P 12 -12744.795909  -7759.246930  21756.037186    145.723976                    
V 12   9624.846706 -26409.432396  -3576.504046     -0.042082                    
P 13  -9292.053066 -13446.790171 -21073.993930     -9.160593                    
V 13  26146.455818  -3959.557130  -8974.264853      0.028310                    
P 14  -6057.398794  15783.488761  20774.747109    -29.248791                    
V 14 -25459.147586   3442.152916 -10386.925452      0.024420                    
P 15 -18984.800183  -7079.327584 -17665.618738   -248.100226                    
V 15  19802.415714  -9307.274501 -17481.939941      0.026236                    
P 16   1493.387362  22469.488038 -13920.119603   -130.000376                    
V 16  -8020.121598  15642.133152  25199.511965     -0.041907                    
P 17  16403.674061 -13999.155847  15894.798931    224.507582                    
V 17  19278.020624  -2417.621667 -22681.653684      0.064552                    
P 18  19776.466863  17777.449297    359.894551      5.018721                    
V 18  -1156.138075   2831.943263 -31621.241567      0.017172                    
P 19   9213.551188 -14735.853257  19792.463238   -191.890494                    
V 19  25583.139233  -2846.306547 -13821.891911      0.051400                    
P 20 -14596.550905  14563.321483 -16711.313882    527.876493                    
V 20    637.272581 -21356.420684 -19473.644110      0.000138                    
P 21 -15543.439293   5243.327723 -20045.688008    -34.042155                    
V 21 -19533.366417 -19182.866214  10000.158078      0.052859                    
P 22  12520.588404  12959.198818  19767.973965   -785.215484                    
V 22  -6005.762290  24004.146615 -11947.548317     -0.003218                    
P 23  25073.544734    230.783602   9675.306661   -132.877206                    
V 23 -10538.717880   5690.530154  27857.935896      0.026428                    
P 24 -22061.606821 -13546.662290   6538.958516     -9.765674                    
V 24  -4176.159220  -8041.763987 -29498.738599     -0.005182                    
P 25 -16022.962732   5794.122727  20067.692403    -11.142349                    
V 25   5933.052521 -25405.676429  12200.182051      0.016520                    
P 26  -3401.913371  25915.592478  -4014.451791    158.521365                    
V 26  -4485.291514   4152.403977  31054.050385      0.076384                    
P 27   6341.838502  13663.887035 -22020.988957   -225.603941                    
V 27 -26690.263839   6960.743771  -3061.869477     -0.109011                    
P 28  12382.745300 -22898.348531  -5036.028011    735.967429                    
V 28   -517.625423   7415.756414 -31204.730276     -0.024786                    
P 29 -26234.172011   3996.588368   1279.258211    -45.433541                    
V 29   1269.424258  -2270.661615  32237.702729     -0.093694                    
P 30   8899.107375 -13257.989199 -21174.387202   -164.951595                    
V 30  18668.225379  19604.118151  -4624.398909     -0.088385                    
P 31   1655.559448  19777.042451  17385.642438    -26.494267                    
V 31 -16662.891204 -15014.101345  19076.437530     -0.024835                    
P 32 -15059.098358  15332.683644  15583.470000    225.098926                    
V 32 -19615.787835   2993.427829 -22137.702088      0.094888                    
EOF
